ONEWEB-0670             
1 55829U 23029AK  24097.23530069 -.00000264  00000+0 -74632-3 0  9993
2 55829  87.8904  89.3075 0001740  69.4796 290.6521 13.14500679 54765
ONEWEB-0671             
1 55830U 23029AL  24096.92184137  .00000021  00000+0  19584-4 0  9996
2 55830  87.9099 104.6614 0001758  81.4203 278.7129 13.19723503 53082
ONEWEB-0672             
1 55831U 23029AM  24096.90495437  .00000020  00000+0  16702-4 0  9991
2 55831  87.9158  74.0694 0002277  89.9355 270.2040 13.20769050 55243
ONEWEB-0673             
1 55832U 23029AN  24096.74652535  .00000107  00000+0  23411-3 0  9998
2 55832  87.9097 104.6643 0001726  84.7591 275.3738 13.19724451 53065
ONEWEB-0674             
1 55833U 23029AP  24096.89912193  .00000199  00000+0  50246-3 0  9991
2 55833  87.8900  89.3837 0001933  68.1590 291.9745 13.14505098 54698
ONEWEB-0675             
1 55834U 23029AQ  24096.76230161  .00000076  00000+0  15692-3 0  9996
2 55834  87.9103 104.6910 0002109 102.7330 257.4038 13.19723126 53084
ONEWEB-0720             
1 55835U 23029AR  24097.05767010  .00000106  00000+0  23181-3 0  9994
2 55835  87.9101 104.6335 0001395  92.7985 267.3307 13.19722798 53739
ONEWEB-0537             
1 56046U 23043A   24096.89469646 -.00000025  00000+0 -98210-4 0  9998
2 56046  87.9141  28.4443 0002112  86.8797 273.2576 13.16596097 53398
